{"type": "FeatureCollection", "features": [ {"type": "Feature", "properties": {"norad_id": 66346, "name": "STARLINK-35482", "group": "last-30-days", "lat": -41.40969628805314, "lon": -75.50236101343006, "alt_km": 415.558467889643, "timestamp": "2025-12-04T09:47:36.300671+00:00", "meta": {"OBJECT_NAME": "STARLINK-35482", "OBJECT_ID": "2025-253AD", "EPOCH": "2025-12-04T04:03:25.555392", "MEAN_MOTION": 15.50644517, "ECCENTRICITY": 0.0003633, "INCLINATION": 43.0009, "RA_OF_ASC_NODE": 34.7423, "ARG_OF_PERICENTER": 233.2728, "MEAN_ANOMALY": 126.7799, "EPHEMERIS_TYPE": 0, "CLASSIFICATION_TYPE": "U", "NORAD_CAT_ID": 66346, "ELEMENT_SET_NO": 999, "REV_AT_EPOCH": 560, "BSTAR": 0.0034722, "MEAN_MOTION_DOT": 0.00209405, "MEAN_MOTION_DDOT": 0}, "tle": {"line1": "1 66346U 25253AD  25338.16904578  .00209405  00000+0  34722-2 0  9992", "line2": "2 66346  43.0009  34.7423 0003633 233.2728 126.7799 15.50644517  5608"}}, "geometry": {"type": "Point", "coordinates": [-75.50236101343006, -41.40969628805314]}}, {"type": "Feature", "properties": {"norad_id": 66347, "name": "STARLINK-35438", "group": "last-30-days", "lat": -42.23082735723132, "lon": -69.73616508242961, "alt_km": 416.4750012511586, "timestamp": "2025-12-04T09:47:36.300682+00:00", "meta": {"OBJECT_NAME": "STARLINK-35438", "OBJECT_ID": "2025-253AE", "EPOCH": "2025-12-03T15:40:21.518976", "MEAN_MOTION": 15.50705087, "ECCENTRICITY": 0.00019216, "INCLINATION": 43.0001, "RA_OF_ASC_NODE": 37.7488, "ARG_OF_PERICENTER": 295.1094, "MEAN_ANOMALY": 64.9567, "EPHEMERIS_TYPE": 0, "CLASSIFICATION_TYPE": "U", "NORAD_CAT_ID": 66347, "ELEMENT_SET_NO": 999, "REV_AT_EPOCH": 552, "BSTAR": 0.0020369018, "MEAN_MOTION_DOT": 0.00121573, "MEAN_MOTION_DDOT": 0}, "tle": {"line1": "1 66347U 25253AE  25337.65302684  .00121573  00000+0  20369-2 0  9997", "line2": "2 66347  43.0001  37.7488 0001921 295.1094  64.9567 15.50705087  5523"}}, "geometry": {"type": "Point", "coordinates": [-69.73616508242961, -42.23082735723132]}}, {"type": "Feature", "properties": {"norad_id": 66348, "name": "STARLINK-35849", "group": "last-30-days", "lat": 47.44429404529933, "lon": 81.77118922293398, "alt_km": 383.3568376068106, "timestamp": "2025-12-04T09:47:36.300693+00:00", "meta": {"OBJECT_NAME": "STARLINK-35849", "OBJECT_ID": "2025-254A", "EPOCH": "2025-12-04T04:00:03.000096", "MEAN_MOTION": 15.601017, "ECCENTRICITY": 0.0001495, "INCLINATION": 53.1594, "RA_OF_ASC_NODE": 317.6897, "ARG_OF_PERICENTER": 89.708, "MEAN_ANOMALY": 107.3768, "EPHEMERIS_TYPE": 0, "CLASSIFICATION_TYPE": "U", "NORAD_CAT_ID": 66348, "ELEMENT_SET_NO": 999, "REV_AT_EPOCH": 554, "BSTAR": -0.02827, "MEAN_MOTION_DOT": -0.02045056, "MEAN_MOTION_DDOT": 0}, "tle": {"line1": "1 66348U 25254A   25338.16670139 -.02045056  00000+0 -28270-1 0  9992", "line2": "2 66348  53.1594 317.6897 0001495  89.7080 107.3768 15.60101700  5545"}}, "geometry": {"type": "Point", "coordinates": [81.77118922293398, 47.44429404529933]}}, {"type": "Feature", "properties": {"norad_id": 66349, "name": "STARLINK-35848", "group": "last-30-days", "lat": 46.530545040907896, "lon": 84.24218323911484, "alt_km": 383.50485673124876, "timestamp": "2025-12-04T09:47:36.300705+00:00", "meta": {"OBJECT_NAME": "STARLINK-35848", "OBJECT_ID": "2025-254B", "EPOCH": "2025-12-04T04:00:03.000096", "MEAN_MOTION": 15.601007, "ECCENTRICITY": 0.000147, "INCLINATION": 53.1592, "RA_OF_ASC_NODE": 317.6853, "ARG_OF_PERICENTER": 92.2513, "MEAN_ANOMALY": 106.7513, "EPHEMERIS_TYPE": 0, "CLASSIFICATION_TYPE": "U", "NORAD_CAT_ID": 66349, "ELEMENT_SET_NO": 999, "REV_AT_EPOCH": 554, "BSTAR": -0.028258, "MEAN_MOTION_DOT": -0.02044192, "MEAN_MOTION_DDOT": 0}, "tle": {"line1": "1 66349U 25254B   25338.16670139 -.02044192  00000+0 -28258-1 0  9999", "line2": "2 66349  53.1592 317.6853 0001470  92.2513 106.7513 15.60100700  5549"}}, "geometry": {"type": "Point", "coordinates": [84.24218323911484, 46.530545040907896]}}, {"type": "Feature", "properties": {"norad_id": 66350, "name": "STARLINK-35829", "group": "last-30-days", "lat": 45.565433054624734, "lon": 86.62901452351849, "alt_km": 383.63421158606616, "timestamp": "2025-12-04T09:47:36.300718+00:00", "meta": {"OBJECT_NAME": "STARLINK-35829", "OBJECT_ID": "2025-254C", "EPOCH": "2025-12-04T04:00:03.000096", "MEAN_MOTION": 15.60101091, "ECCENTRICITY": 0.0001494, "INCLINATION": 53.1591, "RA_OF_ASC_NODE": 317.6812, "ARG_OF_PERICENTER": 93.8561, "MEAN_ANOMALY": 107.0626, "EPHEMERIS_TYPE": 0, "CLASSIFICATION_TYPE": "U", "NORAD_CAT_ID": 66350, "ELEMENT_SET_NO": 999, "REV_AT_EPOCH": 554, "BSTAR": -0.028258, "MEAN_MOTION_DOT": -0.02044258, "MEAN_MOTION_DDOT": 0}, "tle": {"line1": "1 66350U 25254C   25338.16670139 -.02044258  00000+0 -28258-1 0  9994", "line2": "2 66350  53.1591 317.6812 0001494  93.8561 107.0626 15.60101091  5544"}}, "geometry": {"type": "Point", "coordinates": [86.62901452351849, 45.565433054624734]}}, {"type": "Feature", "properties": {"norad_id": 66351, "name": "STARLINK-35828", "group": "last-30-days", "lat": 44.5521750592316, "lon": 88.93397530754865, "alt_km": 383.8293602929216, "timestamp": "2025-12-04T09:47:36.300728+00:00", "meta": {"OBJECT_NAME": "STARLINK-35828", "OBJECT_ID": "2025-254D", "EPOCH": "2025-12-04T04:00:03.000096", "MEAN_MOTION": 15.60098947, "ECCENTRICITY": 0.0001426, "INCLINATION": 53.1593, "RA_OF_ASC_NODE": 317.6773, "ARG_OF_PERICENTER": 95.6635, "MEAN_ANOMALY": 107.1733, "EPHEMERIS_TYPE": 0, "CLASSIFICATION_TYPE": "U", "NORAD_CAT_ID": 66351, "ELEMENT_SET_NO": 999, "REV_AT_EPOCH": 551, "BSTAR": -0.028195, "MEAN_MOTION_DOT": -0.02040086, "MEAN_MOTION_DDOT": 0}, "tle": {"line1": "1 66351U 25254D   25338.16670139 -.02040086  00000+0 -28195-1 0  9990", "line2": "2 66351  53.1593 317.6773 0001426  95.6635 107.1733 15.60098947  5512"}}, "geometry": {"type": "Point", "coordinates": [88.93397530754865, 44.5521750592316]}}, {"type": "Feature", "properties": {"norad_id": 66352, "name": "STARLINK-35850", "group": "last-30-days", "lat": 43.49373502898881, "lon": 91.15836219996334, "alt_km": 383.99251766069574, "timestamp": "2025-12-04T09:47:36.300739+00:00", "meta": {"OBJECT_NAME": "STARLINK-35850", "OBJECT_ID": "2025-254E", "EPOCH": "2025-12-04T04:00:03.000096", "MEAN_MOTION": 15.6009944, "ECCENTRICITY": 0.0001485, "INCLINATION": 53.1595, "RA_OF_ASC_NODE": 317.673, "ARG_OF_PERICENTER": 91.8394, "MEAN_ANOMALY": 112.9128, "EPHEMERIS_TYPE": 0, "CLASSIFICATION_TYPE": "U", "NORAD_CAT_ID": 66352, "ELEMENT_SET_NO": 999, "REV_AT_EPOCH": 549, "BSTAR": -0.028192, "MEAN_MOTION_DOT": -0.02039953, "MEAN_MOTION_DDOT": 0}, "tle": {"line1": "1 66352U 25254E   25338.16670139 -.02039953  00000+0 -28192-1 0  9999", "line2": "2 66352  53.1595 317.6730 0001485  91.8394 112.9128 15.60099440  5491"}}, "geometry": {"type": "Point", "coordinates": [91.15836219996334, 43.49373502898881]}}, {"type": "Feature", "properties": {"norad_id": 66353, "name": "STARLINK-35869", "group": "last-30-days", "lat": 42.39107367508668, "lon": 93.30900266343279, "alt_km": 384.1482313137021, "timestamp": "2025-12-04T09:47:36.300750+00:00", "meta": {"OBJECT_NAME": "STARLINK-35869", "OBJECT_ID": "2025-254F", "EPOCH": "2025-12-04T04:00:03.000096", "MEAN_MOTION": 15.6009202, "ECCENTRICITY": 0.0001533, "INCLINATION": 53.1597, "RA_OF_ASC_NODE": 317.6686, "ARG_OF_PERICENTER": 94.2757, "MEAN_ANOMALY": 112.4043, "EPHEMERIS_TYPE": 0, "CLASSIFICATION_TYPE": "U", "NORAD_CAT_ID": 66353, "ELEMENT_SET_NO": 999, "REV_AT_EPOCH": 554, "BSTAR": -0.02818, "MEAN_MOTION_DOT": -0.02038708, "MEAN_MOTION_DDOT": 0}, "tle": {"line1": "1 66353U 25254F   25338.16670139 -.02038708  00000+0 -28180-1 0  9994", "line2": "2 66353  53.1597 317.6686 0001533  94.2757 112.4043 15.60092020  5542"}}, "geometry": {"type": "Point", "coordinates": [93.30900266343279, 42.39107367508668]}}, {"type": "Feature", "properties": {"norad_id": 66354, "name": "STARLINK-35895", "group": "last-30-days", "lat": -52.78906772175348, "lon": -123.95845027710357, "alt_km": 424.2499365403801, "timestamp": "2025-12-04T09:47:36.300760+00:00", "meta": {"OBJECT_NAME": "STARLINK-35895", "OBJECT_ID": "2025-254G", "EPOCH": "2025-12-04T04:00:03.000096", "MEAN_MOTION": 15.4944129, "ECCENTRICITY": 0.000107, "INCLINATION": 53.1598, "RA_OF_ASC_NODE": 318.0681, "ARG_OF_PERICENTER": 78.4562, "MEAN_ANOMALY": 290.0602, "EPHEMERIS_TYPE": 0, "CLASSIFICATION_TYPE": "U", "NORAD_CAT_ID": 66354, "ELEMENT_SET_NO": 999, "REV_AT_EPOCH": 554, "BSTAR": -0.0045648, "MEAN_MOTION_DOT": -0.00247604, "MEAN_MOTION_DDOT": 0}, "tle": {"line1": "1 66354U 25254G   25338.16670139 -.00247604  00000+0 -45648-2 0  9999", "line2": "2 66354  53.1598 318.0681 0001070  78.4562 290.0602 15.49441290  5546"}}, "geometry": {"type": "Point", "coordinates": [-123.95845027710357, -52.78906772175348]}}, {"type": "Feature", "properties": {"norad_id": 66355, "name": "STARLINK-35861", "group": "last-30-days", "lat": 40.074939506509914, "lon": 97.38051701707879, "alt_km": 384.62613506581056, "timestamp": "2025-12-04T09:47:36.300770+00:00", "meta": {"OBJECT_NAME": "STARLINK-35861", "OBJECT_ID": "2025-254H", "EPOCH": "2025-12-04T04:00:03.000096", "MEAN_MOTION": 15.60098119, "ECCENTRICITY": 0.0001562, "INCLINATION": 53.1594, "RA_OF_ASC_NODE": 317.6605, "ARG_OF_PERICENTER": 84.6514, "MEAN_ANOMALY": 125.8604, "EPHEMERIS_TYPE": 0, "CLASSIFICATION_TYPE": "U", "NORAD_CAT_ID": 66355, "ELEMENT_SET_NO": 999, "REV_AT_EPOCH": 554, "BSTAR": -0.028336, "MEAN_MOTION_DOT": -0.02049013, "MEAN_MOTION_DDOT": 0}, "tle": {"line1": "1 66355U 25254H   25338.16670139 -.02049013  00000+0 -28336-1 0  9990", "line2": "2 66355  53.1594 317.6605 0001562  84.6514 125.8604 15.60098119  5544"}}, "geometry": {"type": "Point", "coordinates": [97.38051701707879, 40.074939506509914]}}]}